[{"OBJECT_NAME":"STARLINK-36291","OBJECT_ID":"2025-304D","EPOCH":"2026-03-09T17:12:56.223360","MEAN_MOTION":14.99126226,"ECCENTRICITY":0.00028277,"INCLINATION":70.0022,"RA_OF_ASC_NODE":174.5958,"ARG_OF_PERICENTER":272.889,"MEAN_ANOMALY":87.1946,"EPHEMERIS_TYPE":0,"CLASSIFICATION_TYPE":"U","NORAD_CAT_ID":67195,"ELEMENT_SET_NO":999,"REV_AT_EPOCH":1388,"BSTAR":-0.00017935491,"MEAN_MOTION_DOT":-2.278e-5,"MEAN_MOTION_DDOT":0},{"OBJECT_NAME":"PEGASUS DEB","OBJECT_ID":"1994-029AEQ","EPOCH":"2026-03-09T08:40:11.508384","MEAN_MOTION":14.70940867,"ECCENTRICITY":0.01619331,"INCLINATION":81.9633,"RA_OF_ASC_NODE":47.0468,"ARG_OF_PERICENTER":351.1383,"MEAN_ANOMALY":8.6969,"EPHEMERIS_TYPE":0,"CLASSIFICATION_TYPE":"U","NORAD_CAT_ID":29033,"ELEMENT_SET_NO":999,"REV_AT_EPOCH":21443,"BSTAR":0.0030025525,"MEAN_MOTION_DOT":0.00022643,"MEAN_MOTION_DDOT":0}]
